KUIPER-00089            
1 64834U 25151U   25230.98249394  .00039210  00000+0  11125-2 0  9995
2 64834  51.8796 125.0916 0005883 270.8864  89.1448 15.35822268  5175
KUIPER-00090            
1 64835U 25151V   25230.92239910  .00028033  00000+0  80631-3 0  9993
2 64835  51.8761 125.4326 0005960 281.3636  78.6680 15.35561448  5156
KUIPER-00091            
1 64836U 25151W   25230.97323917  .00028115  00000+0  79375-3 0  9994
2 64836  51.8795 125.0250 0005698 251.5203 108.5164 15.36144557  5174
KUIPER-00092            
1 64837U 25151X   25231.10659976  .00018217  00000+0  51917-3 0  9992
2 64837  51.8788 124.4153 0005419 264.2670  95.7698 15.36122227  6408
KUIPER-00093            
1 64838U 25151Y   25231.63225686  .00027355  00000+0  78024-3 0  9999
2 64838  51.8790 121.9454 0005021 268.7783  91.2628 15.35843008  5275
KUIPER-00094            
1 64839U 25151Z   25230.13042085  .00025222  00000+0  71611-3 0  9990
2 64839  51.8767 129.1226 0005493 266.8577  93.1780 15.36029082  5279
KUIPER-00081            
1 65132U 25171A   25231.83336806  .00071191  00000+0  20154-2 0  9995
2 65132  51.8775   4.5908 0006074 149.8648 118.0372 15.35622010  2004
KUIPER-00088            
1 65133U 25171B   25231.83336806  .00070578  00000+0  20029-2 0  9995
2 65133  51.8777   4.5970 0005828 151.5847 114.1899 15.35551165  1454
