<?xml version="1.0" encoding="UTF-8"?>
<ndm xmlns:xsi="http://www.w3.org/2001/XMLSchema-instance" xsi:noNamespaceSchemaLocation="https://sanaregistry.org/r/ndmxml_unqualified/ndmxml-2.0.0-master-2.0.xsd">
<omm id="CCSDS_OMM_VERS" version="2.0">
<header><CREATION_DATE/><ORIGINATOR/></header><body><segment><metadata><OBJECT_NAME>KUIPER-00089</OBJECT_NAME><OBJECT_ID>2025-151U</OBJECT_ID><CENTER_NAME>EARTH</CENTER_NAME><REF_FRAME>TEME</REF_FRAME><TIME_SYSTEM>UTC</TIME_SYSTEM><MEAN_ELEMENT_THEORY>SGP4</MEAN_ELEMENT_THEORY></metadata><data><meanElements><EPOCH>2025-08-18T23:34:47.476416</EPOCH><MEAN_MOTION>15.35822268</MEAN_MOTION><ECCENTRICITY>.0005883</ECCENTRICITY><INCLINATION>51.8796</INCLINATION><RA_OF_ASC_NODE>125.0916</RA_OF_ASC_NODE><ARG_OF_PERICENTER>270.8864</ARG_OF_PERICENTER><MEAN_ANOMALY>89.1448</MEAN_ANOMALY></meanElements><tleParameters><EPHEMERIS_TYPE>0</EPHEMERIS_TYPE><CLASSIFICATION_TYPE>U</CLASSIFICATION_TYPE><NORAD_CAT_ID>64834</NORAD_CAT_ID><ELEMENT_SET_NO>999</ELEMENT_SET_NO><REV_AT_EPOCH>517</REV_AT_EPOCH><BSTAR>.11125E-2</BSTAR><MEAN_MOTION_DOT>.3921E-3</MEAN_MOTION_DOT><MEAN_MOTION_DDOT>0</MEAN_MOTION_DDOT></tleParameters></data></segment></body></omm>
<omm id="CCSDS_OMM_VERS" version="2.0">
<header><CREATION_DATE/><ORIGINATOR/></header><body><segment><metadata><OBJECT_NAME>KUIPER-00090</OBJECT_NAME><OBJECT_ID>2025-151V</OBJECT_ID><CENTER_NAME>EARTH</CENTER_NAME><REF_FRAME>TEME</REF_FRAME><TIME_SYSTEM>UTC</TIME_SYSTEM><MEAN_ELEMENT_THEORY>SGP4</MEAN_ELEMENT_THEORY></metadata><data><meanElements><EPOCH>2025-08-18T22:08:15.282240</EPOCH><MEAN_MOTION>15.35561448</MEAN_MOTION><ECCENTRICITY>.000596</ECCENTRICITY><INCLINATION>51.8761</INCLINATION><RA_OF_ASC_NODE>125.4326</RA_OF_ASC_NODE><ARG_OF_PERICENTER>281.3636</ARG_OF_PERICENTER><MEAN_ANOMALY>78.6680</MEAN_ANOMALY></meanElements><tleParameters><EPHEMERIS_TYPE>0</EPHEMERIS_TYPE><CLASSIFICATION_TYPE>U</CLASSIFICATION_TYPE><NORAD_CAT_ID>64835</NORAD_CAT_ID><ELEMENT_SET_NO>999</ELEMENT_SET_NO><REV_AT_EPOCH>515</REV_AT_EPOCH><BSTAR>.80631E-3</BSTAR><MEAN_MOTION_DOT>.28033E-3</MEAN_MOTION_DOT><MEAN_MOTION_DDOT>0</MEAN_MOTION_DDOT></tleParameters></data></segment></body></omm>
<omm id="CCSDS_OMM_VERS" version="2.0">
<header><CREATION_DATE/><ORIGINATOR/></header><body><segment><metadata><OBJECT_NAME>KUIPER-00091</OBJECT_NAME><OBJECT_ID>2025-151W</OBJECT_ID><CENTER_NAME>EARTH</CENTER_NAME><REF_FRAME>TEME</REF_FRAME><TIME_SYSTEM>UTC</TIME_SYSTEM><MEAN_ELEMENT_THEORY>SGP4</MEAN_ELEMENT_THEORY></metadata><data><meanElements><EPOCH>2025-08-18T23:21:27.864288</EPOCH><MEAN_MOTION>15.36144557</MEAN_MOTION><ECCENTRICITY>.0005698</ECCENTRICITY><INCLINATION>51.8795</INCLINATION><RA_OF_ASC_NODE>125.0250</RA_OF_ASC_NODE><ARG_OF_PERICENTER>251.5203</ARG_OF_PERICENTER><MEAN_ANOMALY>108.5164</MEAN_ANOMALY></meanElements><tleParameters><EPHEMERIS_TYPE>0</EPHEMERIS_TYPE><CLASSIFICATION_TYPE>U</CLASSIFICATION_TYPE><NORAD_CAT_ID>64836</NORAD_CAT_ID><ELEMENT_SET_NO>999</ELEMENT_SET_NO><REV_AT_EPOCH>517</REV_AT_EPOCH><BSTAR>.79375E-3</BSTAR><MEAN_MOTION_DOT>.28115E-3</MEAN_MOTION_DOT><MEAN_MOTION_DDOT>0</MEAN_MOTION_DDOT></tleParameters></data></segment></body></omm>
<omm id="CCSDS_OMM_VERS" version="2.0">
<header><CREATION_DATE/><ORIGINATOR/></header><body><segment><metadata><OBJECT_NAME>KUIPER-00092</OBJECT_NAME><OBJECT_ID>2025-151X</OBJECT_ID><CENTER_NAME>EARTH</CENTER_NAME><REF_FRAME>TEME</REF_FRAME><TIME_SYSTEM>UTC</TIME_SYSTEM><MEAN_ELEMENT_THEORY>SGP4</MEAN_ELEMENT_THEORY></metadata><data><meanElements><EPOCH>2025-08-19T02:33:30.219264</EPOCH><MEAN_MOTION>15.36122227</MEAN_MOTION><ECCENTRICITY>.0005419</ECCENTRICITY><INCLINATION>51.8788</INCLINATION><RA_OF_ASC_NODE>124.4153</RA_OF_ASC_NODE><ARG_OF_PERICENTER>264.2670</ARG_OF_PERICENTER><MEAN_ANOMALY>95.7698</MEAN_ANOMALY></meanElements><tleParameters><EPHEMERIS_TYPE>0</EPHEMERIS_TYPE><CLASSIFICATION_TYPE>U</CLASSIFICATION_TYPE><NORAD_CAT_ID>64837</NORAD_CAT_ID><ELEMENT_SET_NO>999</ELEMENT_SET_NO><REV_AT_EPOCH>640</REV_AT_EPOCH><BSTAR>.51917E-3</BSTAR><MEAN_MOTION_DOT>.18217E-3</MEAN_MOTION_DOT><MEAN_MOTION_DDOT>0</MEAN_MOTION_DDOT></tleParameters></data></segment></body></omm>
<omm id="CCSDS_OMM_VERS" version="2.0">
<header><CREATION_DATE/><ORIGINATOR/></header><body><segment><metadata><OBJECT_NAME>KUIPER-00093</OBJECT_NAME><OBJECT_ID>2025-151Y</OBJECT_ID><CENTER_NAME>EARTH</CENTER_NAME><REF_FRAME>TEME</REF_FRAME><TIME_SYSTEM>UTC</TIME_SYSTEM><MEAN_ELEMENT_THEORY>SGP4</MEAN_ELEMENT_THEORY></metadata><data><meanElements><EPOCH>2025-08-19T15:10:26.992704</EPOCH><MEAN_MOTION>15.35843008</MEAN_MOTION><ECCENTRICITY>.0005021</ECCENTRICITY><INCLINATION>51.8790</INCLINATION><RA_OF_ASC_NODE>121.9454</RA_OF_ASC_NODE><ARG_OF_PERICENTER>268.7783</ARG_OF_PERICENTER><MEAN_ANOMALY>91.2628</MEAN_ANOMALY></meanElements><tleParameters><EPHEMERIS_TYPE>0</EPHEMERIS_TYPE><CLASSIFICATION_TYPE>U</CLASSIFICATION_TYPE><NORAD_CAT_ID>64838</NORAD_CAT_ID><ELEMENT_SET_NO>999</ELEMENT_SET_NO><REV_AT_EPOCH>527</REV_AT_EPOCH><BSTAR>.78024E-3</BSTAR><MEAN_MOTION_DOT>.27355E-3</MEAN_MOTION_DOT><MEAN_MOTION_DDOT>0</MEAN_MOTION_DDOT></tleParameters></data></segment></body></omm>
<omm id="CCSDS_OMM_VERS" version="2.0">
<header><CREATION_DATE/><ORIGINATOR/></header><body><segment><metadata><OBJECT_NAME>KUIPER-00094</OBJECT_NAME><OBJECT_ID>2025-151Z</OBJECT_ID><CENTER_NAME>EARTH</CENTER_NAME><REF_FRAME>TEME</REF_FRAME><TIME_SYSTEM>UTC</TIME_SYSTEM><MEAN_ELEMENT_THEORY>SGP4</MEAN_ELEMENT_THEORY></metadata><data><meanElements><EPOCH>2025-08-18T03:07:48.361440</EPOCH><MEAN_MOTION>15.36029082</MEAN_MOTION><ECCENTRICITY>.0005493</ECCENTRICITY><INCLINATION>51.8767</INCLINATION><RA_OF_ASC_NODE>129.1226</RA_OF_ASC_NODE><ARG_OF_PERICENTER>266.8577</ARG_OF_PERICENTER><MEAN_ANOMALY>93.1780</MEAN_ANOMALY></meanElements><tleParameters><EPHEMERIS_TYPE>0</EPHEMERIS_TYPE><CLASSIFICATION_TYPE>U</CLASSIFICATION_TYPE><NORAD_CAT_ID>64839</NORAD_CAT_ID><ELEMENT_SET_NO>999</ELEMENT_SET_NO><REV_AT_EPOCH>527</REV_AT_EPOCH><BSTAR>.71611E-3</BSTAR><MEAN_MOTION_DOT>.25222E-3</MEAN_MOTION_DOT><MEAN_MOTION_DDOT>0</MEAN_MOTION_DDOT></tleParameters></data></segment></body></omm>
<omm id="CCSDS_OMM_VERS" version="2.0">
<header><CREATION_DATE/><ORIGINATOR/></header><body><segment><metadata><OBJECT_NAME>KUIPER-00081</OBJECT_NAME><OBJECT_ID>2025-171A</OBJECT_ID><CENTER_NAME>EARTH</CENTER_NAME><REF_FRAME>TEME</REF_FRAME><TIME_SYSTEM>UTC</TIME_SYSTEM><MEAN_ELEMENT_THEORY>SGP4</MEAN_ELEMENT_THEORY></metadata><data><meanElements><EPOCH>2025-08-19T20:00:03.000384</EPOCH><MEAN_MOTION>15.35622010</MEAN_MOTION><ECCENTRICITY>.0006074</ECCENTRICITY><INCLINATION>51.8775</INCLINATION><RA_OF_ASC_NODE>4.5908</RA_OF_ASC_NODE><ARG_OF_PERICENTER>149.8648</ARG_OF_PERICENTER><MEAN_ANOMALY>118.0372</MEAN_ANOMALY></meanElements><tleParameters><EPHEMERIS_TYPE>0</EPHEMERIS_TYPE><CLASSIFICATION_TYPE>U</CLASSIFICATION_TYPE><NORAD_CAT_ID>65132</NORAD_CAT_ID><ELEMENT_SET_NO>999</ELEMENT_SET_NO><REV_AT_EPOCH>200</REV_AT_EPOCH><BSTAR>.20154E-2</BSTAR><MEAN_MOTION_DOT>.71191E-3</MEAN_MOTION_DOT><MEAN_MOTION_DDOT>0</MEAN_MOTION_DDOT></tleParameters></data></segment></body></omm>
<omm id="CCSDS_OMM_VERS" version="2.0">
<header><CREATION_DATE/><ORIGINATOR/></header><body><segment><metadata><OBJECT_NAME>KUIPER-00088</OBJECT_NAME><OBJECT_ID>2025-171B</OBJECT_ID><CENTER_NAME>EARTH</CENTER_NAME><REF_FRAME>TEME</REF_FRAME><TIME_SYSTEM>UTC</TIME_SYSTEM><MEAN_ELEMENT_THEORY>SGP4</MEAN_ELEMENT_THEORY></metadata><data><meanElements><EPOCH>2025-08-19T20:00:03.000384</EPOCH><MEAN_MOTION>15.35551165</MEAN_MOTION><ECCENTRICITY>.0005828</ECCENTRICITY><INCLINATION>51.8777</INCLINATION><RA_OF_ASC_NODE>4.5970</RA_OF_ASC_NODE><ARG_OF_PERICENTER>151.5847</ARG_OF_PERICENTER><MEAN_ANOMALY>114.1899</MEAN_ANOMALY></meanElements><tleParameters><EPHEMERIS_TYPE>0</EPHEMERIS_TYPE><CLASSIFICATION_TYPE>U</CLASSIFICATION_TYPE><NORAD_CAT_ID>65133</NORAD_CAT_ID><ELEMENT_SET_NO>999</ELEMENT_SET_NO><REV_AT_EPOCH>145</REV_AT_EPOCH><BSTAR>.20029E-2</BSTAR><MEAN_MOTION_DOT>.70578E-3</MEAN_MOTION_DOT><MEAN_MOTION_DDOT>0</MEAN_MOTION_DDOT></tleParameters></data></segment></body></omm>

</ndm>
